[{"OBJECT_NAME":"OBJECT G","OBJECT_ID":"2024-092G","EPOCH":"2026-03-09T22:11:03.729408","MEAN_MOTION":14.31801198,"ECCENTRICITY":0.00127592,"INCLINATION":98.655,"RA_OF_ASC_NODE":188.1467,"ARG_OF_PERICENTER":137.1835,"MEAN_ANOMALY":223.0344,"EPHEMERIS_TYPE":0,"CLASSIFICATION_TYPE":"U","NORAD_CAT_ID":59779,"ELEMENT_SET_NO":999,"REV_AT_EPOCH":9469,"BSTAR":0.00013020254,"MEAN_MOTION_DOT":3.04e-6,"MEAN_MOTION_DDOT":0},{"OBJECT_NAME":"CZ-6A DEB","OBJECT_ID":"2024-140YP","EPOCH":"2026-03-09T23:10:17.738976","MEAN_MOTION":13.91386919,"ECCENTRICITY":0.01972192,"INCLINATION":88.737,"RA_OF_ASC_NODE":272.2162,"ARG_OF_PERICENTER":262.5651,"MEAN_ANOMALY":95.3077,"EPHEMERIS_TYPE":0,"CLASSIFICATION_TYPE":"U","NORAD_CAT_ID":61422,"ELEMENT_SET_NO":999,"REV_AT_EPOCH":7859,"BSTAR":0.00067384505,"MEAN_MOTION_DOT":1.008e-5,"MEAN_MOTION_DDOT":0}]
